Name,Address,City,St,Zip,Phone
168 Chinese Restaurant,7720 Turkey Lake Road,Orlando, Florida,32819,4073631688
1st Choice Restaurant,4081 Columbia Street,Orlando, Florida,32811,4072921332
456 Chinese Restaurant,657 North Primrose Drive,Orlando, Florida,32803,4078981899
4th Fighter Group Restaurant,East Colonial Dr And Ricken,Orlando, Florida,32801,4078984251
5 & Diner,12286 East Colonial Drive,Orlando, Florida,32826,4072071952
88 Chinese Restaurant,4175 Town Center Boulevard,Orlando, Florida,32837,4074380388
88 Chinese Restaurant,6115 Silver Star Road,Orlando, Florida,32808,4072971171
88 Noodle,730 North Mills Avenue,Orlando, Florida,32803,4078973488
A JS Chicken & Seafood,601 West Church Street,Orlando, Florida,32805,4078418880
A JS Deli,7680 Universal Boulevard,Orlando, Florida,32819,4073635733
A JS Deli,7061 Grand National Drive,Orlando, Florida,32819,4073523663
A Slice of New York,13851 South John Young Parkway,Orlando, Florida,32837,4078540064
Adobe Gilas,9101 International Drive,Orlando, Florida,32819,4079031477
Ahmed Restaurant,11349 South Orange Blossom Tra,Orlando, Florida,32837,4078568272
AJ Ender Restaurant Managment Recruiter,1210 Romano Avenue,Orlando, Florida,32807,4074820156
AJS Jerk Center,2389 West Church Street,Orlando, Florida,32805,4072982312
Aldos Italian Deli Inc,6325 North Orange Blossom Trai,Orlando, Florida,32810,4072998726
Alessandras International Restaurant,7467 International Drive,Orlando, Florida,32819,4079039290
Alex Tortilleria & Restaurant,2417 West Oak Ridge Road,Orlando, Florida,32809,4078883531
Alfonsos Pizza & More,3231 Edgewater Drive,Orlando, Florida,32804,4078727324
All American Burgers & Dogs,5291 West Oak Ridge Road,Orlando, Florida,32819,4072481145
All American Hot Dogs,861 North Alafaya Trail,Orlando, Florida,32828,4072819971
All Star Cafe Restaurant,890 South Victory Way,Orlando, Florida,32830,4078278326
Amalfi Italian Restaurant & Pizza,523 South Chickasaw Trail,Orlando, Florida,32825,4072826283
Amber Keg,7521 South Orange Avenue,Orlando, Florida,32809,4078519755
American West Indian Seafood & Grocery,5931 Old Winter Garden Road,Orlando, Florida,32835,4072929846
Amerisuites Orlando Convention Center,8741 International Dr,Orlando, Florida,32819,4073704720
Amerisuites Orlando Universal,5901 Caravan Ct,Orlando, Florida,32819,4073510627
Amigos Original Tex-Mex,6036 South Orange Blossom Trai,Orlando, Florida,32809,4078573144
Amigos VII,25 West Church Street,Orlando, Florida,32801,4079994885
Amura Japanese Restaurant,55 West Church Street,Orlando, Florida,32801,4073168500
Amura Windermere Japanese Restaurant,7780 West Sand Lake Road,Orlando, Florida,32819,4073700007
Andy Nice House Restaurant,11358 South Orange Blossom Tra,Orlando, Florida,32837,4078574688
Angel's Diner,Colonial Drive,Orlando, Florida,32810,4074262029
Angels Diner & Bakery,204 West Colonial Drive,Orlando, Florida,32801,4074262029
Angel's Diner & Bakery,304 West Colonial Drive,Orlando, Florida,32801,4073971960
Angkoowatp Inc,12384 State Road 535,Orlando, Florida,32836,4072389996
ANH Hong Sandwich Deli & Restaurant,1124 East Colonial Drive,Orlando, Florida,32803,4079992656
Anthonys Next Door,106 North Summerlin Avenue,Orlando, Florida,32801,4076482772
Anthonys Pizza Cafe,100 North Summerlin Avenue,Orlando, Florida,32801,4076480009
Anthonys Pizza-Ucf,10165 University Boulevard,Orlando, Florida,32817,4076796080
Antonios Restaurant and Pizza,5464 Chiswick Circle,Orlando, Florida,32812,4072736799
APNA Restaurants,9436 South Orange Blossom Trai,Orlando, Florida,32837,4078598500
Arby's Inc,5540 West Colonial Drive,Orlando, Florida,32808,4072955055
Arby's Inc,8586 South Orange Blossom Trai,Orlando, Florida,32809,4078599077
Arby's Inc,11891 East Colonial Drive,Orlando, Florida,32826,4073849526
Arby's Inc,6199 North Orange Blossom Trai,Orlando, Florida,32810,4072902880
Arby's Inc,2420 West Oak Ridge Road,Orlando, Florida,32809,4078596926
Arbys R T M Inc,1401 South Semoran Boulevard,Orlando, Florida,32807,4072779274
Arthurs 27,Downtown Disney Reso,Orlando, Florida,32830,4078273450
Artist Point,Disney's Wilderness,Orlando, Florida,32830,4079393463
Art's Cafe,1235 N.Orange Ave,Orlando, Florida,32804,4078959772
Art's Cafe,1235 north orang ave,Orlando, Florida,32804,4078959772
Arts Sandwich Shop Inc,1018 South Orange Blossom Trai,Orlando, Florida,32805,4074257814
Athenain Garden Cafe,2918 North Orange Avenue,Orlando, Florida,32804,4078982151
Atkins Elrod & Company Realtors Restaurant,229 Pasadena Place,Orlando, Florida,32803,4078416067
Authentic Cuban Sandwich,6303 South Orange Blossom Trai,Orlando, Florida,32809,4078525778
B & B Diner,3335 Curry Ford Road,Orlando, Florida,32806,4078951050
B T Bones Steak House,11350 South Orange Blossom Tra,Orlando, Florida,32837,4078597225
Baby J Restaurants,7135 South Orange Blossom Trai,Orlando, Florida,32809,4078161611
Bacco Italian Restaurant,10065 University Boulevard,Orlando, Florida,32817,4076788833
Backstage at the Rosen Plaza Hotel,9700 International Drive,Orlando, Florida,32819,4079969700
Backyard Burgers,7699 South Orange Blossom Trai,Orlando, Florida,32809,4078882820
Bahama Breeze,8735 Vineland Ave,Orlando, Florida,32821,4079389010
Bahama Breeze,8849 International Dr,Orlando, Florida,32819,4072482499
Baja Burrito Kitchen,2716 East Colonial Drive,Orlando, Florida,32803,4078956112
Baja Burrito Kitchen,423 North Alafaya Trail,Orlando, Florida,32828,4072826880
Baja Burrito Kitchen,4642 South Kirkman Road,Orlando, Florida,32811,4072995001
Bale Bakery,1229 North Mills Avenue,Orlando, Florida,32803,4078988011
Baraka Grille Inc,37 North Orange Avenue,Orlando, Florida,32801,4078398500
Bar-B-Q Bar,64 North Orange Avenue,Orlando, Florida,32801,4076485441
Bar-B-Que Shack,4529 North Pine Hills Road,Orlando, Florida,32808,4072951968
Barneys Steak & Seafood,1615 East Colonial Drive,Orlando, Florida,32803,4078966864
Barney's Steak & Seafood,1615 E.Colonial Dr,Orlando, Florida,32803,4078966865
Baskervilles,1850 Hotel Plaza Boulevard,Orlando, Florida,32830,4078284444
Bauern-Stube Authentic German Restaurant,8015 South Orange Avenue,Orlando, Florida,32809,4078578404
Bebee Pherai West Indian Bakery & Restaurant,4300 South Orange Blossom Trai,Orlando, Florida,32839,4076490095
Beckys Bar & Grill,12205 Narcoossee Road,Orlando, Florida,32827,4073803029
Beefy King Restaurant,424 North Bumby Avenue,Orlando, Florida,32803,4078942241
Beeline Mexican Restaurant,4542 Hoffner Avenue,Orlando, Florida,32812,4078570566
Beer Bellys Restaurant,6624 Old Winter Garden Road,Orlando, Florida,32835,4072973577
Benihana,1751 Hotel Plaza Boulevard,Orlando, Florida,32830,4078274865
Benihana Japanese Steakhouse & Sushi Bar,1751 Hotel Plaza Blvd,Orlando, Florida,32830,4078274865
Bennigan's - Colonial,4250 East Colonial Drive,Orlando, Florida,32803,4078966516
Bennigan's - South Orlando,6324 International Drive,Orlando, Florida,32819,4073514435
Bennigans Restaurants,7630 South Orange Blossom Trai,Orlando, Florida,32809,4078511266
Benny Choos Chinese,12329 Abberton Court,Orlando, Florida,32837,4078512090
Big Apple Buffet,198 South Semoran Boulevard,Orlando, Florida,32807,4073827220
Big Apple Deli & Sub,9785 South Orange Blossom Trai,Orlando, Florida,32837,4078576765
Big Belly Brewery,33 West Church Street,Orlando, Florida,32801,4076494270
Big Daddy's Roadhouse,3001 corrine drive,Orlando, Florida,32803,4076442844
Bill Wongs Restaurant,5668 International Drive,Orlando, Florida,32819,4073525373
Biscuits,2301 North Forsyth Road,Orlando, Florida,32807,4076787329
Bismillah of Orlando Inc,11220 South Orange Blossom Tra,Orlando, Florida,32837,4072519550
Bizzy Bee Buffet 7089,5626 Curry Ford Road,Orlando, Florida,32822,4072756327
Blue Restaurant,3367 South Kirkman Road,Orlando, Florida,32811,4076294599
Bobs Family Restaurant,1745 West Oak Ridge Road,Orlando, Florida,32809,4078553204
Bonefish Grill,7830 W Sandlake Rd,Orlando, Florida,32819,4073557707
Bonfamilles Cafe,Disney's Port Orlean,Orlando, Florida,32830,4079393463
Bongos Cuban Cafe,1498 East Buena Vista Drive,Orlando, Florida,32830,4078280999
Bongos Cuban Cafe,1498 East Buena Vista Drive,Orlando, Florida,32818,4078280999
Booth the Back,12261 University Boulevard,Orlando, Florida,32817,4072757480
Boston Lobster Feast,South At The Florida # T,Orlando, Florida,32801,4074380607
Bostonions Restaurant & Pub,2405 West Oak Ridge Road,Orlando, Florida,32809,4078269993
Brasserie Restaurant & Lounge-Sheraton World R,10100 International Drive,Orlando, Florida,32821,4073521100
Bravissimo Italian Cafe,337 North Shine Avenue,Orlando, Florida,32803,4078987333
Brians Restaurant,1409 North Orange Avenue,Orlando, Florida,32804,4078969912
Brisas Del Caribe Restaurant,5773 Curry Ford Road,Orlando, Florida,32822,4072752996
Broadway Pizza & Restaurant,1700 Woolco Way,Orlando, Florida,32822,4073817700
Broadway Pizza & Restaurant,6807 Visitors Circle,Orlando, Florida,32819,4073518989
Broadway Pizzaria and Restaurante,2409 Edgewater Drive,Orlando, Florida,32804,4076488877
Broadway Ristorante and Pizzaria,12279 University Boulevard,Orlando, Florida,32817,4072824000
Brooklyn Pizza,5681 Pershing Avenue,Orlando, Florida,32822,4072820110
Bryans Spanish Cove Condos,13875 State Road 535,Orlando, Florida,32821,4072394222
BS Barbecue,1210 Nebraska Street,Orlando, Florida,32803,4078966746
Bubbalous Bodacious Barbecue,5818 Conroy Road,Orlando, Florida,32835,4072951212
Bubbalous Bodacious Bar-B-Q,12100 Challenger Parkway,Orlando, Florida,32826,4074231212
Bubbas Deli Inc,3407 Conway Gardens Road,Orlando, Florida,32806,4078545151
BUCA Di Beppo,8001 S Orange Blossom Tr,Orlando, Florida,32809,4078597844
Buddyfreddys Country Buffet,5310 Central Florida Parkway,Orlando, Florida,32821,4072387594
Buenos Aire Roma,7044 International Drive,Orlando, Florida,32819,4072261380
Buffalo Wings & Sub CO,5586 North Orange Blossom Trai,Orlando, Florida,32810,4072962766
Bumby Cafeteria,207 North Bumby Avenue,Orlando, Florida,32803,4078945262
C & J Restaurant,562 West Church Street,Orlando, Florida,32805,4074221777
C & N Steak House,8460 Palm Parkway,Orlando, Florida,32836,4072397256
Cafe Allegre,2401 Edgewater Drive,Orlando, Florida,32804,4078722332
Cafe Annie,6513 Hidden Beach Circle,Orlando, Florida,32819,4074252808
Cafe Express,20 North Orange Avenue,Orlando, Florida,32801,4078727552
Cafe Express Homestyle,712 West Church Street,Orlando, Florida,32805,4078393914
Cafe Italiano Inc,565 North Semoran Boulevard,Orlando, Florida,32807,4072776840
Cafe Madrid,4502 Curry Ford Road,Orlando, Florida,32812,4072819491
Cafe Trastevere,825 N Magnolia Avenue,Orlando, Florida,32803,4078390235
Cafe TU TU Tango,8625 International Drive,Orlando, Florida,32819,4072482222
Cafeteria Latina,29 South Semoran Boulevard,Orlando, Florida,32807,4072779240
Cajun Max,124 West Pine Street,Orlando, Florida,32801,4076497227
Calico Jacks,11726 East Colonial Drive,Orlando, Florida,32817,4072492526
California Grill,Disney's Contemporar,Orlando, Florida,32830,4079393463
Camilas Restaurant,5458 International Drive,Orlando, Florida,32819,4073542507
Campanellas Subs,9195 Montevello Drive,Orlando, Florida,32818,4079050190
Canton One Chinese Restaurant,4075 West Oak Ridge Road,Orlando, Florida,32809,4073540607
Cape May Cafe,Disney's Beach Club,Orlando, Florida,32830,4079393463
Capri Italian-Restaurant Inc,5159 International Drive,Orlando, Florida,32819,4073526428
Captain Table,312 South Orange Blossom Trail,Orlando, Florida,32805,4076505994
Caribbean Flavour,4031 West Oak Ridge Road,Orlando, Florida,32809,4073517090
Caribbean One Stop,2117 West Colonial Drive,Orlando, Florida,32804,4074237552
Caribbean Sunshine Bakery,6982 Silver Star Road,Orlando, Florida,32818,4075780068
Caribe Royale Resort Suites And Villas,8101 World Center Dr,Orlando, Florida,32821,4072388000
Carinos Italian Restaurant Pizza & Deli,7572 West Sand Lake Road,Orlando, Florida,32819,4073528407
Carribean Sunshine Bakery,2528 West Colonial Drive,Orlando, Florida,32804,4078395060
Casa de Las Empanadas,1717 West Oak Ridge Road,Orlando, Florida,32809,4078129697
Cascade Restaurant,1 Grand Cypress Boulevard,Orlando, Florida,32836,4072391234
Caseys Deli,41 East Robinson Street,Orlando, Florida,32801,4078722457
Caseys On Central,50 East Central Boulevard,Orlando, Florida,32801,4076484218
Catered Elegance,4797 South Orange Avenue,Orlando, Florida,32806,4078545654
Cattlemans Steakhouse,8801 International Drive,Orlando, Florida,32819,4073549888
Cecils Texas Style Bar-B-Q,2800 South Orange Avenue,Orlando, Florida,32806,4074239871
Celebrity Delly,2030 West Colonial Drive,Orlando, Florida,32804,4078391983
Chale Cafe & Grill,Po Box 568671,Orlando, Florida,32856,4078943579
Chamberlins Market & Cafe,4960 East Colonial Drive,Orlando, Florida,32803,4078948452
Chamberlins Market & Cafe,7600 Drive Phillips Boulevard,Orlando, Florida,32819,4073522130
Champs Deli Bakery & Cafe,132 East Central Boulevard,Orlando, Florida,32801,4076491230
Chans Chinese Cuisine,1901 East Colonial Drive,Orlando, Florida,32803,4078960093
Chaparral Steakhouse,6129 Old Winter Garden Road,Orlando, Florida,32835,4072987334
Chapters Bookshop & Cafe Inc,721 West Smith Street,Orlando, Florida,32804,4072460114
Chapters Bread & Books Cafe Inc,717 West Smith Street,Orlando, Florida,32804,4072461546
Charleys Steak House,6107 South Orange Blossom Trai,Orlando, Florida,32809,4078517130
Chat Gardens,11601 South Orange Blossom Tra,Orlando, Florida,32837,4078259555
Chathams Place,7575 Dr Phillips Boulevard,Orlando, Florida,32819,4073452992
Chatham's Place,7575 Dr Phillips Blvd,Orlando, Florida,32809,4073452992
Checkers Drive In,6371 West Colonial Drive,Orlando, Florida,32818,4072940288
Checkers Drive-In,2750 West Colonial Drive,Orlando, Florida,32804,4072950807
Checkers Drive-In Restaurants,1035 Lee Road,Orlando, Florida,32810,4076280811
Checkers International Drive,6908 West Sand Lake Road,Orlando, Florida,32819,4072489052
Checkers Restaurant,7604 East Colonial Drive,Orlando, Florida,32807,4076582053
Checkers Restaurant,3800 South Orange Blossom Trai,Orlando, Florida,32839,4078494663
Checkers Restaurant,11816 East Colonial Drive,Orlando, Florida,32826,4073814710
Cheeburger Cheeburger,5812 Conroy Road,Orlando, Florida,32835,4075229993
Chengs Chinese Restaurant,4004 South Semoran Boulevard,Orlando, Florida,32822,4072494180
Chens Restaurant,7350 Curry Ford Road,Orlando, Florida,32822,4072081128
Chens Restaurant,7575 West Sand Lake Road,Orlando, Florida,32819,4072261717
Cherazis Italian Restaurant & Pizza,1400 South Crystal Lake Drive,Orlando, Florida,32806,4078950505
Cheryls Cafe,4303 Vineland Road,Orlando, Florida,32811,4076484978
Cheyenne Saloon and Restaurant,128 West Church Street,Orlando, Florida,32801,4074237742
Chez Daniel,4124 Lake Underhill Road,Orlando, Florida,32803,4078969976
Chez Nous,720 South Orange Blossom Trail,Orlando, Florida,32805,4079994997
Chick Fil A,7415 South Orange Blossom Trai,Orlando, Florida,32809,4078560106
Chick Fil A,Orlando Fashion Squa,Orlando, Florida,32801,4078962675
Chick Fil A,13448 South Apopka Vineland Ro,Orlando, Florida,32821,4078277032
Chick Fil A,Florida Mall,Orlando, Florida,32801,4078576580
Chick Fil A,11350 University Boulevard,Orlando, Florida,32817,4077370002
Chick Fil-A at Colonial Plaza Market Center,2448 East Colonial Drive,Orlando, Florida,32803,4078960350
Chicken KOOP Wings & Things,5408 Silver Star Road,Orlando, Florida,32808,4075320110
Chick-Fil-A - Orlando Fashion Square,4752 South Kirkman Road,Orlando, Florida,32811,4078962675
Chick-Fil-A of Sand Lake Road,7333 West Sand Lake Road,Orlando, Florida,32819,4073709295
Chick-Fil-A of Waterford Lakes,633 North Alafaya Trail,Orlando, Florida,32828,4072818897
Chicos Sub Shop,5 Lorna Doone Boulevard,Orlando, Florida,32805,4074255249
Chili Hut,14836 Spyglass Street,Orlando, Florida,32826,4073824700
China 8,2912 North Pine Hills Road,Orlando, Florida,32808,4072968553
China Bay Restaurant,6315 Seabury Way,Orlando, Florida,32818,4072908460
China Cafe,6803 South Kirkman Road,Orlando, Florida,32819,4072269898
China City,851 Sand Lake Road,Orlando, Florida,32809,4078592168
China Club,4066 North Alafaya Trail,Orlando, Florida,32826,4073801084
China Corral,929 West Colonial Drive,Orlando, Florida,32804,4078391333
China Fortune Restaurant,1163 South Semoran Boulevard,Orlando, Florida,32807,4072080809
China Hut,7615 South Orange Blossom Trai,Orlando, Florida,32809,4072400467
China in Metro West,2407 South Hiawassee Road,Orlando, Florida,32835,4072998687
China Jade Buffet Mongolian Grill,7403 South Orange Blossom Trai,Orlando, Florida,32809,4074389999
China Jade Buffet Mongolian Grill,7308 International Drive,Orlando, Florida,32819,4073639797
China Jade Buffet Mongolian Grill,819 Herndon Avenue,Orlando, Florida,32803,4078986394
China King Express,6406 North Orange Blossom Trai,Orlando, Florida,32810,4075217434
China Master,2425 Edgewater Drive,Orlando, Florida,32804,4074227968
China Palace Restaurant,2740 South Orange Blossom Trai,Orlando, Florida,32805,4074232958
Chinas Best,2508 South Semoran Boulevard,Orlando, Florida,32822,4078237799
Chinatown Restauarant & Market,1103 North Mills Avenue,Orlando, Florida,32803,4078969383
Chirico Fast Food,4302 South Semoran Boulevard,Orlando, Florida,32822,4072070022
Choices Cafe,201 South Orange Avenue,Orlando, Florida,32801,4078392007
CHOO Choos Chinese Fast Food,4700 South Orange Blossom Trai,Orlando, Florida,32839,4078596099
Choo-Choo Churros,5810 Lake Underhill Road,Orlando, Florida,32807,4073826001
Chriss Truck Stop,17433 East Colonial Drive,Orlando, Florida,32820,4075685227
Christos Subs & Salads,1815 Edgewater Drive,Orlando, Florida,32804,4074258136
Chubbys Family Restaurant,10376 East Colonial Drive,Orlando, Florida,32817,4073806006
Chuck E Cheese,449 North Alafaya Trail,Orlando, Florida,32828,4073827121
Chucks Restaurant II,807 North Mills Avenue,Orlando, Florida,32803,4078988143
Churchs Fried Chicken Express,8299 Silver Star Road,Orlando, Florida,32818,4075217896
CIAO Italia,6149 Westwood Boulevard,Orlando, Florida,32821,4073540770
Cicis Pizza Inc,8261 South John Young Parkway,Orlando, Florida,32819,4073524244
Cinemark Festival Bay,5150 International Drive,Orlando, Florida,32819,4073513117
Citricos,Disney's Grand Flori,Orlando, Florida,32830,4079393463
City Diner,411 North Magnolia Avenue,Orlando, Florida,32801,4073168111
Claddagh Cottage Irish Pub,4308 Curry Ford Road,Orlando, Florida,32806,4078951555
Clarkies Restaurant,3110 South Orange Avenue,Orlando, Florida,32806,4078591690
Club Orlando Resort,5305 San Antonio Ave,Orlando, Florida,32839,4073551105
Club Restaurant ZIPA,37 West Pine Street,Orlando, Florida,32801,4078358052
Coffee Cafe,Factory Outlet Mall,Orlando, Florida,32801,4073512210
College Park Cafe,2304 Edgewater Drive,Orlando, Florida,32804,4074209892
Colonial Lanes Restaurant & Bar,400 North Primrose Drive,Orlando, Florida,32803,4078961443
Conch Palace,5120 Silver Star Road,Orlando, Florida,32808,4072951017
Concha ME Crazy Restaurant,191 East Pine Street,Orlando, Florida,32801,4072460011
Coney Island Pizza,731 South Semoran Boulevard,Orlando, Florida,32807,4074825755
Coneys Curls & Swirls,3900 Edgewater Drive,Orlando, Florida,32804,4072984832
Convention Services & Facilities,400 West Livingston Street,Orlando, Florida,32801,4078436664
Conways Barbecue,2435 South Orange Avenue,Orlando, Florida,32806,4075400208
Conways BBQ,7320 Lake Underhill Road,Orlando, Florida,32822,4073821997
Conways BBQ,Po Box 560004,Orlando, Florida,32856,4073827172
Cooker Bar & Grille,2600 East Colonial Drive,Orlando, Florida,32803,4078943009
Costa Del Sol,Po Box 574865,Orlando, Florida,32857,4074829336
Crab House Seafood Restaurant,8496 Palm Parkway,Orlando, Florida,32836,4072391888
Crab House Seafood Restaurant,8291 International Drive,Orlando, Florida,32819,4073526140
Crab Stop,3749 South Kirkman Road,Orlando, Florida,32811,4072926161
Crackers Seafood Restaurant,129 West Church Street,Orlando, Florida,32801,4074222434
Crickets an Eating & Drinking Place,4562 South Semoran Boulevard,Orlando, Florida,32822,4072773322
Crocodile Reef,6231 International Drive,Orlando, Florida,32819,4073543333
Cruzin Crabs Seafood II,2420 Curry Ford Road,Orlando, Florida,32806,4072284449
Cuban Cafe,1355 Florida Mall Avenue,Orlando, Florida,32809,4078560580
Cuban Sandwiches To Go,1605 Lee Road,Orlando, Florida,32810,4075788888
Cubita Cuban Sandwiches & Grill,1200 Lee Road,Orlando, Florida,32810,4076454535
Cynsere Enterprises Inc,9565 South Orange Blossom Trai,Orlando, Florida,32837,4078568300
Daily News Cafe,231 North Magnolia Avenue,Orlando, Florida,32801,4076488718
Daily News Deli & Grille Too,201 East Pine Street,Orlando, Florida,32801,4078391220
Dans Family Restaurant,5623 West Colonial Drive,Orlando, Florida,32808,4075783083
Dans Family Restaurant,7300 East Colonial Drive,Orlando, Florida,32807,4072751225
Dans Sandwich Shoppes,30 South Orange Avenue,Orlando, Florida,32801,4074258881
Dantes Restaurant Inc,1912 South Orange Avenue,Orlando, Florida,32806,4078390605
Darden,6000 Lake Ellanor Drive,Orlando, Florida,32809,4072456632
Darden Restaurants Inc - Purchasing,5900 Lake Ellenor Drive,Orlando, Florida,32809,4072452183
Darryls Restaurant & Bar,8282 International Drive,Orlando, Florida,32819,4073511883
Dawns Place,9407 Tradeport Drive,Orlando, Florida,32827,4072400266
Daybreak Diner,2901 Curry Ford Road,Orlando, Florida,32806,4078988338
Days Inn,7335 Sand Lake Rd,Orlando, Florida,32819,4073511900
Days Inn East,5827 Caravan Ct,Orlando, Florida,32819,4073513800
Debary Golf & Country Club,Us Highway 17-92 De,Orlando, Florida,32801,4076491982
Deerstar Pool,546 Lake Como Circle,Orlando, Florida,32803,4078968770
Del Frisco's Steakhouse,729 Lee Rd,Orlando, Florida,32810,4076454443
Deli Planet,2315 South Orange Avenue,Orlando, Florida,32806,4074209152
Delicattesses Catalina,2406 East Robinson Street,Orlando, Florida,32803,4078986663
Delicias Restaurant,5908 South Orange Avenue,Orlando, Florida,32809,4078595200
Delta Orlando Resort,5715 Major Boulevard,Orlando, Florida,32819,4073513340
Delta Orlando Resort,5715 Major Blvd,Orlando, Florida,32819,4072481005
Dennys,12083 South Orange Blossom Tra,Orlando, Florida,32837,4078504119
Dennys,3700 South Orange Blossom Trai,Orlando, Florida,32839,4072461399
Denny's Diner,3957 South Kirkman Road,Orlando, Florida,32811,4075220122
Detroit Joes,333 North Orange Avenue,Orlando, Florida,32801,4076497711
Devaneys Too,11875 East Colonial Drive,Orlando, Florida,32826,4077376460
Dexters of Thorton Park,808 East Washington Street,Orlando, Florida,32801,4076482777
Di Pasqua Enterprises,7413 East Colonial Drive,Orlando, Florida,32807,4072738699
Di Vinos Italian Restaurant,8445 International Drive,Orlando, Florida,32819,4073450883
Dock Side Grill,5494 Central Florida Parkway,Orlando, Florida,32821,4072398552
DOMS Pizza,5075 Edgewater Drive,Orlando, Florida,32810,4072988998
Don Pablo's Mexican Kitchen,1100 South Clarke Road,Orlando, Florida,32801,4072900903
Don Pablo's Mexican Kitchen,11400 University Boulevard,Orlando, Florida,32817,4072081828
Don Pablo's Mexican Kitchen,8717 International Drive,Orlando, Florida,32819,4073541345
Don Pablo's Mexican Kitchen,4645 South Semoran Boulevard,Orlando, Florida,32822,4072080801
Donna Donni Restaurant,7500 Republic Drive,Orlando, Florida,32819,4073544880
Donna Donni Restaurant,7500 Universal Boulevard,Orlando, Florida,32819,4073544880
Dragon China Restaurant,7538 West Sand Lake Road,Orlando, Florida,32819,4072268818
Dragon King,3333 South Orange Avenue,Orlando, Florida,32806,4078882206
Dragon Station,654 South Goldenrod Road,Orlando, Florida,32822,4073809833
Dubsdread Golf Club - Restaurant & Lounge,549 West Par Street,Orlando, Florida,32804,4076500100
Duffys Subs,10042 University Boulevard,Orlando, Florida,32817,4076792448
Durango Steak House,10222 East Colonial Drive,Orlando, Florida,32817,4072730450
Eastwood Golf Club - Restaurant,13950 Golfway Boulevard,Orlando, Florida,32828,4072811623
Easy Street Cafe,2500 South Semoran Boulevard,Orlando, Florida,32822,4074479520
Egg Roll 99,5697 Vineland Road,Orlando, Florida,32819,4073634466
El Bohio Cafe,5756 Dahlia Drive,Orlando, Florida,32807,4072821723
El Cerro Grande,12201 University Boulevard,Orlando, Florida,32817,4072821222
El Flamboyan,12141 South Orange Blossom Tra,Orlando, Florida,32837,4078578008
El Jinete Mexican,5137 South John Young Parkway,Orlando, Florida,32839,4078125884
El Mambo Restaurant,518 West Oak Ridge Road,Orlando, Florida,32809,4078575090
El Palacio Restaurant,701 West Lancaster Road,Orlando, Florida,32809,4072400961
El Patio,5427 Moonglow Boulevard,Orlando, Florida,32839,4072482447
El Rancho Latino,6817 West Colonial Drive,Orlando, Florida,32818,4072934244
El Tipico Restaurant,1140 West Oak Ridge Road,Orlando, Florida,32809,4078571046
El-Junqueno,308 South Semoran Boulevard,Orlando, Florida,32807,4072731820
Embassy Suites Hotel Orlando- Internatio,8978 International Drive,Orlando, Florida,32819,4073521400
Embassy Suites Orlando Downtown,191 E Pine St,Orlando, Florida,32801,4078411000
Embassy Vacation Resort Orlando,8317 Lake Bryan Beach Blvd,Orlando, Florida,32821,4072382500
Emilys Restaurant,8607 Palm Parkway,Orlando, Florida,32836,4072394999
Empire Szechuan,341 North Orange Avenue,Orlando, Florida,32801,4078391577
"Eo Inn, The (Ip)",227 North Eola Drive,Orlando, Florida,32801,8884818488
European Deli,6807 South Orange Avenue,Orlando, Florida,32809,4078594999
Eva Johnson,1015 South Orange Blossom Trai,Orlando, Florida,32805,4074266969
Everybodys Mom,2512 North Orange Avenue,Orlando, Florida,32804,4078945295
Extreme Pizza Inc,4636 West Bronson Highway,Orlando, Florida,32801,4075797387
Fairvilla Restaurant,2575 North Orange Blossom Trai,Orlando, Florida,32804,4074220911
Falafel Cafe,12140 Collegiate Way,Orlando, Florida,32817,4073826600
Far Pavilion Indian Cuisine,5748 International Drive,Orlando, Florida,32819,4073515522
Fazolis Italian Fast Food,12025 Collegiate Way,Orlando, Florida,32817,4073803737
Fazolis Italian Food Fast,3922 East Colonial Drive,Orlando, Florida,32803,4078947006
Fiesta SA Nayon Bakery & Restaurant,9472 South Orange Blossom Trai,Orlando, Florida,32837,4078571588
Fillin Station Pub & Eatery,2631 South Ferncreek Avenue,Orlando, Florida,32806,4078946900
First Choice Chinese Restaurant,1567 Silver Star Road,Orlando, Florida,32804,4072910100
First Choice Chinese Restuarant,513 South Chickasaw Trail,Orlando, Florida,32825,4073822285
First Watch Restaurant,63 East Pine Street,Orlando, Florida,32801,4078415544
First Watch Restaurant,7500 West Sand Lake Road,Orlando, Florida,32819,4073635622
Fish Bones Restaurant,6707 West Sand Lake Road,Orlando, Florida,32819,4073520135
Fish Pot,908 South Ivey Lane,Orlando, Florida,32811,4072987844
Five Star Chinese Restaurant,8151 Valencia College Lane,Orlando, Florida,32825,4072732808
Five Star Pizza,5608 Pershing Avenue,Orlando, Florida,32822,4072756699
Flippers Pizza,6125 Westwood Boulevard,Orlando, Florida,32821,4073450113
Flippers Pizza,4774 South Kirkman Road,Orlando, Florida,32811,4075210607
Flippers Pizza,7480 Universal Boulevard,Orlando, Florida,32819,4073515643
Flippers Pizza Wholesale,11321 Satellite Boulevard,Orlando, Florida,32837,4078576935
"Florida Restaurant Association, Central Florida Ch",13 South Orange Avenue,Orlando, Florida,32801,4079990049
Flyers Wings & Grill,5621 West Colonial Drive,Orlando, Florida,32808,4072979464
Flying Fish Cafe,Disney's Board Walk,Orlando, Florida,32830,4079393463
Food Mart Takeout Indian Food,7511 International Drive,Orlando, Florida,32819,4073525510
Forbidden City Chinese Restaurant,948 North Mills Avenue,Orlando, Florida,32803,4078945005
Four Points By Sheraton Orlando Downtown,151 E Washington St,Orlando, Florida,32801,4078413220
Franklin Restaurant,2107 West Colonial Drive,Orlando, Florida,32804,4072461312
Franz & Peppone,7239 International Drive,Orlando, Florida,32819,4073630840
Free Market International Corporation,8001 South Orange Blossom Trai,Orlando, Florida,32809,4072401010
Friday's - Airport,7118 South Semoran Boulevard,Orlando, Florida,32822,4078557000
Fridays Front Row Sports Grill,8148 International Drive,Orlando, Florida,32819,4073458884
Friendly Confines,435 North Alafaya Trail,Orlando, Florida,32828,4077369182
Friendly Restaurant,8718 International Drive,Orlando, Florida,32819,4073451655
Friendly Restaurants,4753 South Kirkman Road,Orlando, Florida,32811,4072956843
Friendlys,12185 Collegiate Way,Orlando, Florida,32817,4073812275
Froggers Grill & Bar,4481 North Pine Hills Road,Orlando, Florida,32808,4072918330
Froggers Oyster Bar & Grill,4112 Town Center Boulevard,Orlando, Florida,32837,4078124090
Front Row Sports Grill,8126 International Drive,Orlando, Florida,32819,4073631414
Fuji Sushi,7099 South Orange Blossom Trai,Orlando, Florida,32809,4078160099
Fultons Crab,1670 North Buena Vista Drive,Orlando, Florida,32830,4079342628
Fusian Japenese Eatery,12281 University Boulevard,Orlando, Florida,32817,4077368987
Gabriels Submarine Sandwich Shop,2840 Curry Ford Road,Orlando, Florida,32806,4078946244
Gabriels Submarine Sandwich Shops,3006 Edgewater Drive,Orlando, Florida,32804,4074259926
Gabriels Submarine Sandwich Shops,2711 North Pine Hills Road,Orlando, Florida,32808,4072985502
Gains German Restaurant,5731 South Orange Blossom Trai,Orlando, Florida,32839,4074388997
Garden Cafe,8688 Palm Parkway,Orlando, Florida,32836,4072398500
Garden Cafe Vegetarian Restaurant,810 West Colonial Drive,Orlando, Florida,32804,4079999799
Gargis Italian Restaurant,1421 North Orange Avenue,Orlando, Florida,32804,4078947907
Garibaldi Mexican Restaurant,929 North Semoran Boulevard,Orlando, Florida,32807,4072755035
Gator Family Restaurant,14525 Gatorland Drive,Orlando, Florida,32837,4074383346
Gators Dockside,5601 South Semoran Boulevard,Orlando, Florida,32822,4077376010
Gator's Dockside,5601 s semoran blvd,Orlando, Florida,32822,4077376010
Gators Dockside at South Chase Inc,12237 South Orange Blossom Tra,Orlando, Florida,32837,4078260505
Gators Dockside at Waterford Lakes Inc,12448 Lake Underhill Road,Orlando, Florida,32828,4072499444
Gentabellas Restaurant,679 West Lancaster Road,Orlando, Florida,32809,4078573216
Ginnie BS Family Diner,516 South Parramore Avenue,Orlando, Florida,32805,4074234763
Ginos Pizza & Brew III,120 South Orange Avenue,Orlando, Florida,32801,4079997827
Giordanos Restaurant and Pizzeria,12151 South Apopka Vineland Ro,Orlando, Florida,32836,4072398900
Giovannis Italian Restaurant & Pizzeria,2140 South Chickasaw Trail,Orlando, Florida,32825,3212359600
Giovannis Pizza & Subs,3204 South Goldenrod Road,Orlando, Florida,32822,4072731087
GLI Food Services,2750 Business Center Boulevard,Orlando, Florida,32801,4072924628
Glorias Cafe,166 South Semoran Boulevard,Orlando, Florida,32807,3212350089
Godfather Pizza,5365 International Drive,Orlando, Florida,32819,4073455088
Godfathers,5511 Clarcona Ocoee Road,Orlando, Florida,32810,4072946484
Golden Buffet Chinesse Restaurant,11680 East Colonial Drive,Orlando, Florida,32817,3212351245
Golden Coast Chinese Restaurant,10438 East Colonial Drive,Orlando, Florida,32817,4072072999
Golden Empire Chinese Restaurant Inc,12403 South Orange Blossom Tra,Orlando, Florida,32837,4072518881
Golden Gate Chinese Restaurant,6440 East Colonial Drive,Orlando, Florida,32807,4073807221
Golden Lotus Chinese Restaurant,8365 South John Young Parkway,Orlando, Florida,32819,4073523832
Golden Palace Chinese Restaurant,1728 Woolco Way,Orlando, Florida,32822,4072810980
Golden Stallion Chinese Restaurant,3255 West Colonial Drive,Orlando, Florida,32808,4072986923
Goodfellas Pizzeria,11865 East Colonial Drive,Orlando, Florida,32826,4076586615
Gossip Restaurant & Lounge,536 West Church Street,Orlando, Florida,32805,4074819227
Grand Cypress Resort,1 North Jacaranda Street,Orlando, Florida,32836,4072394700
Gratzi,7499 Augusta National Drive,Orlando, Florida,32822,4078519000
Great American Deli,4241 North John Young Parkway,Orlando, Florida,32804,4072912513
Great China Restaurant,12275 University Boulevard,Orlando, Florida,32817,4072752223
Green House Chinese Restaurants,12915 South Orange Blossom Tra,Orlando, Florida,32837,4074380988
Guest Services International,6353 South Orange Avenue,Orlando, Florida,32809,8773431813
"Hampton Inn Orlando, Fl- Universal Studios",5621 Windhover Dr,Orlando, Florida,32819,8002318395
Hampton Inn Orlando-Lake Buena Vista,8150 Palm Pkwy,Orlando, Florida,32836,4074658150
Hampton Inn Orlando-South Of Universal S,7110 S Kirkman Rd,Orlando, Florida,32819,4073451112
Hanamizuki Japanese Restaurant,8255 International Drive,Orlando, Florida,32819,4073637200
Handy Way Food Store 4504 Hardees,10001 Lake Underhill Road,Orlando, Florida,32825,4072490083
Hard Rock Cafe,6100 Old Park Lane,Orlando, Florida,32835,4072900717
Hard Rock Cafe Restaurant,6050 Universal Boulevard,Orlando, Florida,32819,4073517625
Hardees of Orlando,6234 West Colonial Drive,Orlando, Florida,32808,4072933876
Hardees of Silver Star,5212 Silver Star Road,Orlando, Florida,32808,4072934784
Havanas 2 Restaurant,1325 West Washington Street,Orlando, Florida,32805,4074267625
Havanas Cafe 3,8544 Palm Parkway,Orlando, Florida,32836,4072385333
Hawk's Landing Steakhouse & Grill,8701 World Center Dr,Orlando, Florida,32821,4072388829
Hawthorn Suites - Orlando Airport,7450 Augusta National Dr,Orlando, Florida,32822,4074322121
Hawthorn Suites - Orlando/Lake Buena Vis,8303 Palm Pkwy,Orlando, Florida,32836,4075975000
Hawthorn Suites Hotel,6435 Westwood Blvd,Orlando, Florida,32821,4073516660
Hiens Vietnamese & Chinese Restaurant,924 North Mills Avenue,Orlando, Florida,32803,4078980460
High Tide Harrys Seafood Restaurant,925 North Semoran Boulevard,Orlando, Florida,32807,4072734422
High Tide Harrys Seafood Restaurant,5831 South Orange Blossom Trai,Orlando, Florida,32839,4078574307
Hilton Garden Inn at Sea World International Cente,6850 Westwood Boulevard,Orlando, Florida,32821,4073541500
Hilton Garden InnÂ® Orlando Univ. Central,1959 N Alafaya Trl,Orlando, Florida,32826,4079925000
Hoi QUAN Tri Am,4849 South Orange Blossom Trai,Orlando, Florida,32839,4078566666
Holiday House Restaurants,2037 Lee Road,Orlando, Florida,32810,4072934930
Holiday Inn Express,1853 McCoy Rd,Orlando, Florida,32809,4078511113
Holiday Inn Express,6323 International Dr,Orlando, Florida,32819,4073514430
Holiday Inn Express Orlando-E. Colonial,8750 E Colonial Dr,Orlando, Florida,32817,4072823900
Holiday Inn Family Suites Resort Lake Bu,14500 Continental Gtwy,Orlando, Florida,32821,4073875437
"Holiday Inn Orlando/Disney/Internat'l, F",6515 International Dr,Orlando, Florida,32819,4073513500
"Holiday Inn Orlando-Downtown, Fl",304 W Colonial Dr,Orlando, Florida,32801,4079960100
Holiday Inn Select Orlando-University Ce,12125 High Tech Ave,Orlando, Florida,32817,4072759000
Honduras Restaurant,4897 West Colonial Drive,Orlando, Florida,32808,4075231326
Hong Kong Asian Cuisine,Oakhill Village Shop,Orlando, Florida,32801,4072969988
Hong Kong Buffet,10663 East Colonial Drive,Orlando, Florida,32817,4074820898
Hoop-Dee DOO Musical Review,Walt Disney World Re,Orlando, Florida,32830,4079393463
Hooters Restaurant,5300 South Kirkman Road,Orlando, Florida,32819,4073545350
Hooters Restaurant - Orlando Airport,7222 Augusta National Drive,Orlando, Florida,32822,4078502552
Hop-Bo Chinese Restaurant,4420 Curry Ford Road,Orlando, Florida,32812,4073811867
Hops Grill & Bar,11448 University Boulevard,Orlando, Florida,32817,4073819109
Hops Restaurant Bar & Brewery,848 Sand Lake Road,Orlando, Florida,32809,4078513131
Horizons By Marriott Vacation Club Orlan,7102 Grand National Dr,Orlando, Florida,32819,4074656100
Hospitality Management of America,100 West Livingston Street,Orlando, Florida,32801,4078435775
Hot 2 Stay Cuchifrito,435 North Semoran Boulevard,Orlando, Florida,32807,4077378282
Hot Dog Heaven,5355 East Colonial Drive,Orlando, Florida,32807,4072825746
Hotel & Restaurant Employees Local 362,1255 La Quinta Drive,Orlando, Florida,32809,4078510626
Houlihans,9150 International Drive,Orlando, Florida,32819,4073630043
House of Blues,Downtown Disney West,Orlando, Florida,32830,4079342583
Hovan Gourmet,Fashion Square Mall,Orlando, Florida,32803,4078959900
"Howard Johnson Plaza, Hotel, & Suites",9956 Hawaiian Ct,Orlando, Florida,32819,4073515100
Howard Johnson Resort Hotel And Suites Orlando,2323 McCoy Rd,Orlando, Florida,32809,4075815000
Hue Restaurant,629 East Central Boulevard,Orlando, Florida,32801,4078491800
Hungry Howies Pizza,2401 West Oak Ridge Road,Orlando, Florida,32809,4078547777
Hunters Creek Chinese Restaurant,4106 Town Center Boulevard,Orlando, Florida,32837,4078160900
Hyatt Regency Orlando International Airport,9300 Airport Blvd,Orlando, Florida,32827,4078251234
Hyatt Regency Orlando International Airport,9300 Airport Boulevard,Orlando, Florida,32827,4078251234
Ichiban,19 S Orange Ave,Orlando, Florida,32801,4074232688
Ichiban Japanese Restaurant,19 South Orange Avenue,Orlando, Florida,32801,4074232688
IL Pescatore,651 North Primrose Drive,Orlando, Florida,32803,4078966763
India Palace,8530 Palm Parkway,Orlando, Florida,32836,4072382322
Indian Rasoi,852 West Lancaster Road,Orlando, Florida,32809,4078882147
International Boston Lobster Feast,8735 International Drive,Orlando, Florida,32819,4072488606
International Cafe,956 South Orange Avenue,Orlando, Florida,32806,4078439760
International Deli and Market,8000 International Drive,Orlando, Florida,32819,4073513131
International Food Inc,6400 International Drive,Orlando, Florida,32819,4072261515
International House of Pancakes No 36-64,647 East Colonial Drive,Orlando, Florida,32803,4078968313
International House of Pancakes No 36-74,6005 International Drive,Orlando, Florida,32819,4073510031
International House of Pancakes No 36-81,795 South Semoran Boulevard,Orlando, Florida,32807,4072750243
International House of Pancakes No 36-85,4124 West Colonial Drive,Orlando, Florida,32808,4072932411
International House of Pancakes No 36-93,7661 International Drive,Orlando, Florida,32819,4073514090
International House of Pancakes No 36-98,2534 33rd Street,Orlando, Florida,32839,4078720540
Islamorida Fish Company,5156 International Drive,Orlando, Florida,32819,4075635100
Island Tropics Cafe,1451 North Pine Hills Road,Orlando, Florida,32808,4075327787
Islands of Adventure,1000 Universal Studios Place,Orlando, Florida,32819,4073638000
Italian Eatery,7435 International Drive,Orlando, Florida,32819,4073700064
Italian Village Pizza Restaurant,5032 West Colonial Drive,Orlando, Florida,32808,4075783463
Italian Village Pizza Restaurant,4898 Edgewater Drive,Orlando, Florida,32804,4072929900
Its A Secret BBQ,4309 Old Winter Garden Road,Orlando, Florida,32811,4075230980
ITZA Pizza & Italian Cafe,7149 Edgewater Drive,Orlando, Florida,32810,4072993881
J & J Mini Restaurant,2200 North Forsyth Road,Orlando, Florida,32807,4076739126
J & J Tropical American Restaurant,1025 South Orange Blossom Trai,Orlando, Florida,32805,4074266969
J BS Sports Bar & Grill Restaurant,4880 South Kirkman Road,Orlando, Florida,32811,4072938881
J WS Steakhouse,8701 World Center Drive,Orlando, Florida,32821,4072394200
Jack & Marys Restaurant,2323 South Goldenrod Road,Orlando, Florida,32822,4072811113
Jade Garden Chinese Restaurant,11845 East Colonial Drive,Orlando, Florida,32826,4076584567
Jakes,4580 East Michigan Street,Orlando, Florida,32812,4073846021
Jalapenos Mexican Food,1703 West Oak Ridge Road,Orlando, Florida,32809,4078509660
Jamaican Punch,1311 West Pine Street,Orlando, Florida,32805,4079990393
Janwood Management,4060 Town Center Boulevard,Orlando, Florida,32837,4078551170
Japan Food AKI Restaurant,7460 Universal Boulevard,Orlando, Florida,32819,4073540025
Jarretts Grill and Catering Company,35 West Michigan Street,Orlando, Florida,32806,4075812400
Jason DS Pizzeria,1718 North Goldenrod Road,Orlando, Florida,32807,4073829004
Jasons Cafe & Pizzeria,1595 Silver Star Road,Orlando, Florida,32804,4075326868
JAX 5th Avenue Deli & Ale House,3400 Edgewater Drive,Orlando, Florida,32804,4079998934
JAX 5th Avenue Deli & Ale House,11 South Court Avenue,Orlando, Florida,32801,4078415322
JIN Ho Chinese Restaurant,4646 South Kirkman Road,Orlando, Florida,32811,4075787788
JIN SHA Chinese Restaurant,3530 South Orange Avenue,Orlando, Florida,32806,4078513160
Joes Crabshack,12124 South Apopka Vineland Ro,Orlando, Florida,32836,4074651895
Johnny Rivers Smokehouse,5370 West Colonial Drive,Orlando, Florida,32808,4072935803
Johnnys Ribs and Wings,723 North Powers Drive,Orlando, Florida,32818,4072930030
Joses Sandwich Shop,517 East Michigan Street,Orlando, Florida,32806,4074232451
Juan & Onlys,1500 Epcot Resort Boulevard,Orlando, Florida,32830,4079341609
Jungle Jims,12501 State Road 535,Orlando, Florida,32836,4078271257
Jungle Jims Restaurant - Church,Street Church South # 55,Orlando, Florida,32801,4078723111
Kanpai of Tokyo,6687 South Kirkman Road,Orlando, Florida,32819,4073524811
Karrib Delight,6801 Forest City Road,Orlando, Florida,32810,4075230070
KASH N Karry Food Stores Inc - Landstar Store,13850 Landstar Boulevard,Orlando, Florida,32824,4074380252
Kate Obriens Irish Pub & Restaurant,42 West Central Boulevard,Orlando, Florida,32801,4076497646
Kathys Wings & Subs Etc,2801 North Hiawassee Road,Orlando, Florida,32818,4072994647
Kathys Wings & Subs Etc,6814 Forest City Road,Orlando, Florida,32810,4075219464
KC Cleaning Services,377 West Church Street,Orlando, Florida,32801,4078418933
Kelseys Pizzeria,12269 University Boulevard,Orlando, Florida,32817,4072820505
KERS Winghouse,3201 Parkway Center Court,Orlando, Florida,32808,4075226422
Keys Group Inc,6043 Lake Pointe Drive,Orlando, Florida,32822,4073822791
Kim Long Restuarant,1326 North Mills Avenue,Orlando, Florida,32803,4072280031
Kim Tai Restaurant,2631 North Pine Hills Road,Orlando, Florida,32808,4072941510
Kim Wu Chinese Restaurant,4904 South Kirkman Road,Orlando, Florida,32811,4072930752
Kimonos,1200 Epcot Resort Boulevard,Orlando, Florida,32830,4079341609
King Express,2225 West Oak Ridge Road,Orlando, Florida,32809,4078547899
Kinoko Japanese Steak House,6111 West Colonial Drive,Orlando, Florida,32808,4072911199
KOBE Japanese Steakhouse & Sushi Bar,5605 South Kirkman Road,Orlando, Florida,32819,4072481978
KOBE Japanese Steakhouse & Sushi Bar,2110 East Colonial Drive,Orlando, Florida,32803,4078956868
KOBE Japanese Steakhouse & Sushi Bar,8350 International Drive,Orlando, Florida,32819,4073521811
Kosher Glatt Restaurant,8548 Palm Parkway,Orlando, Florida,32836,4074650545
LA Carmencita Grill,504 West Oak Ridge Road,Orlando, Florida,32809,4078160102
LA Cazona Restaurant,624 West Lancaster Road,Orlando, Florida,32809,4078512200
LA Fonda de Victor,517 North Semoran Boulevard,Orlando, Florida,32807,4072810826
LA Fontanella,900 East Washington Street,Orlando, Florida,32801,4074250033
LA Hacienda Restaurant,8204 Crystal Clear Lane,Orlando, Florida,32809,4074470707
LA Herradura,5667 South Orange Avenue,Orlando, Florida,32809,4078520588
LAI LAI Chinese Cuisine & Sushi Bar,7400 Southland Boulevard,Orlando, Florida,32809,4078573740
Lakay Restaurant,1444 North Pine Hills Road,Orlando, Florida,32808,4075323343
Lakay Restaurant,1444 North Pine Hills Road,Orlando, Florida,32808,4075323343
Lake Eola Yacht Club,407 East Central Boulevard,Orlando, Florida,32801,4078410033
Lake Eola Yacht Club,407 East Central Boulevard,Orlando, Florida,32801,4078410033
Lake View Coffee Shop,6500 International Drive,Orlando, Florida,32819,4079037220
Lake View Coffee Shop,6500 International Drive,Orlando, Florida,32819,4079037220
Lakeside Restaurant,431 East Central Boulevard,Orlando, Florida,32801,4078411565
Lakeside Restaurant,431 East Central Boulevard,Orlando, Florida,32801,4078411565
Lams Garden,2505 East Colonial Drive,Orlando, Florida,32803,4078960370
Lando Sams Bar & Grill-Radisson Plaza Hotel,60 South Ivanhoe Boulevard,Orlando, Florida,32804,4074254455
Lando Sams Bar & Grill-Radisson Plaza Hotel,60 South Ivanhoe Boulevard,Orlando, Florida,32804,4074254455
Landrys Seafood,8800 Vineland Avenue,Orlando, Florida,32821,4078276466
Landrys Seafood,8800 Vineland Avenue,Orlando, Florida,32821,4078276466
Larrys Cedar River Seafood & Oyster Bar,1715 Spring Lake Drive,Orlando, Florida,32804,4078580525
Larrys Cedar River Seafood & Oyster Bar,1715 Spring Lake Drive,Orlando, Florida,32804,4078580525
Las Villas Cafe,675 South Semoran Boulevard,Orlando, Florida,32807,4072498692
Las Villas Cafe,675 South Semoran Boulevard,Orlando, Florida,32807,4072498692
Lasincertite Restaurant,108 North Orange Blossom Trail,Orlando, Florida,32805,4076494718
Lasincertite Restaurant,108 North Orange Blossom Trail,Orlando, Florida,32805,4076494718
Latin Power Cafe,4083 West Oak Ridge Road,Orlando, Florida,32809,4073516311
Latin Power Cafe,4083 West Oak Ridge Road,Orlando, Florida,32809,4073516311
Le Coqauvin,4800 South Orange Avenue,Orlando, Florida,32806,4078516980
Le Croissant Shop,111 North Orange Avenue,Orlando, Florida,32801,4076488316
Le Croissant Shop,111 North Orange Avenue,Orlando, Florida,32801,4076488316
Le Gala Restaurant,307 North Orange Blossom Trail,Orlando, Florida,32805,4078395888
Le Gala Restaurant,307 North Orange Blossom Trail,Orlando, Florida,32805,4078395888
Le Provence Restaurant,50 East Pine Street,Orlando, Florida,32801,4078431320
Le Tropical Restaurants,6415 West Colonial Drive,Orlando, Florida,32818,4072977119
Le Tropical Restaurants,6415 West Colonial Drive,Orlando, Florida,32818,4072977119
Lechonera Latina,9850 East Colonial Drive,Orlando, Florida,32817,4072490207
Lechonera Latina,9850 East Colonial Drive,Orlando, Florida,32817,4072490207
Lee and Ricks Half Shell Oyster Bar,5621 Old Winter Garden Road,Orlando, Florida,32811,4072933587
Lee and Ricks Half Shell Oyster Bar,5621 Old Winter Garden Road,Orlando, Florida,32811,4072933587
Lees Korean Bistro,221 East Colonial Drive,Orlando, Florida,32801,4074253900
Lees Subs & Burger,301 South Orange Blossom Trail,Orlando, Florida,32805,4076485683
Lees Subs & Burger,301 South Orange Blossom Trail,Orlando, Florida,32805,4076485683
Lenha & CO Pizza,5644 International Drive,Orlando, Florida,32819,4072489552
Lennards Cozy Inn,3916 Columbia Street,Orlando, Florida,32805,4072980333
Lennards Cozy Inn,3916 Columbia Street,Orlando, Florida,32805,4072980333
Leos Pizza,5143 South John Young Parkway,Orlando, Florida,32839,4074387226
Lepeep Restaurant,4666 South Kirkman Road,Orlando, Florida,32811,4072914580
Lepeep Restaurant,4666 South Kirkman Road,Orlando, Florida,32811,4072914580
Leroys Cuisine,6825 West Colonial Drive,Orlando, Florida,32818,4075781223
Leroys Cuisine,6825 West Colonial Drive,Orlando, Florida,32818,4075781223
Li JING Chinese Food,7150 West Colonial Drive,Orlando, Florida,32818,4072991639
Li JING Chinese Food,7150 West Colonial Drive,Orlando, Florida,32818,4072991639
Lidos Italian Restaurant,2509 South Orange Avenue,Orlando, Florida,32806,4074238933
Lidos Italian Restaurant,2509 South Orange Avenue,Orlando, Florida,32806,4074238933
Lil Anthonys,2612 East Colonial Drive,Orlando, Florida,32803,4078980007
Lil Apple Deli,9430 East Colonial Drive,Orlando, Florida,32817,4072814269
Little Caesars Pizza - Goldenrod,734 South Goldenrod Road,Orlando, Florida,32822,4072753806
Little Caesars Pizza - Ocoee,1606 Silver Star Road,Orlando, Florida,32804,4072905757
Little Caesars Pizza - Union Park,11222 East Colonial Drive,Orlando, Florida,32817,4072497733
Little Caesars Pizza - Waterford Lakes,12430 Lake Underhill Road,Orlando, Florida,32828,4073808880
Little Caesars Pizza Office,4153 L B McLeod Road,Orlando, Florida,32811,4074262334
Little Saigon Restaurant,1106 East Colonial Drive,Orlando, Florida,32803,4074238539
Little Thai Garden Restaurant,6040 South Orange Blossom Trai,Orlando, Florida,32809,4072408686
Little Thai Garden Restaurant,6040 South Orange Blossom Trai,Orlando, Florida,32809,4072408686
Lobster Feast,South At The Florida # T,Orlando, Florida,32808,4074380607
Lockhart Country Cafe,7153 Rose Avenue,Orlando, Florida,32810,4072903182
Lockhart Country Cafe,7153 Rose Avenue,Orlando, Florida,32810,4072903182
Logans Deli,135 West Central Boulevard,Orlando, Florida,32801,4074269501
Logans Deli,135 West Central Boulevard,Orlando, Florida,32801,4074269501
Logans Roadhouse,7480 West Colonial Drive,Orlando, Florida,32818,4072955300
Logans Roadhouse,3060 West Sand Lake Road,Orlando, Florida,32819,4073514599
Logans Roadhouse,7480 West Colonial Drive,Orlando, Florida,32818,4072955300
Los Agachados Taqueria,1740 Woolco Way,Orlando, Florida,32822,4073847776
Los Agachados Taqueria,1740 Woolco Way,Orlando, Florida,32822,4073847776
Los Chinitos,12058 Collegiate Way,Orlando, Florida,32817,3212350880
Los Chinitos,12058 Collegiate Way,Orlando, Florida,32817,3212350880
Louie and Marias Italian Resteraunt,9728 East Colonial Drive,Orlando, Florida,32817,4072777755
Louie and Marias Italian Resteraunt,9728 East Colonial Drive,Orlando, Florida,32817,4072777755
Louis Downtown,116 West Church Street,Orlando, Florida,32801,4076484688
Louis Downtown,116 West Church Street,Orlando, Florida,32801,4076484688
Louis Downtown Restaurant,135 North Lucerne Circle East,Orlando, Florida,32801,4076484688
Louis Downtown Restaurant,135 North Lucerne Circle East,Orlando, Florida,32801,4076484688
LUA Loa,301 West Church Street,Orlando, Florida,32801,4074260566
LUA Loa,301 West Church Street,Orlando, Florida,32801,4074260566
Luckys Spot & Restaurant,2727 Silver Star Road,Orlando, Florida,32808,4072994776
Luckys Spot & Restaurant,2727 Silver Star Road,Orlando, Florida,32808,4072994776
Lucys Food Mart,567 West Church Street,Orlando, Florida,32805,4078391345
Lucys Food Mart,567 West Church Street,Orlando, Florida,32805,4078391345
Lunch Basket,901 North Magnolia Avenue,Orlando, Florida,32803,4074227402
Lunch Basket,901 North Magnolia Avenue,Orlando, Florida,32803,4074227402
M CS Watertower Kitchen,1875 Central Florida Parkway,Orlando, Florida,32837,4078547753
M CS Watertower Kitchen,1875 Central Florida Parkway,Orlando, Florida,32837,4078547753
Magic Fry,300 North Ivey Lane,Orlando, Florida,32811,4072980888
Magic Seafood,2111 West Colonial Drive,Orlando, Florida,32804,4079999914
Maharaja Indian Cuisine,12239 University Boulevard,Orlando, Florida,32817,4073848850
Maingate Pizza,7459 International Drive,Orlando, Florida,32819,4073634400
Mama BS Giant Subs,692 North Orange Avenue,Orlando, Florida,32801,4074227353
Mama BS Giant Subs,1101 South Orange Avenue,Orlando, Florida,32806,4078393633
Mama Dellas Ristorante,5601 Universal Boulevard,Orlando, Florida,32819,4075033463
Mama Leones Pizzeria,1513 East Michigan Street,Orlando, Florida,32806,4078986119
Mama Mia,2985 Silver Star Road,Orlando, Florida,32808,4072979016
Mama MIAS Pizzeria,706 East Wallace Street,Orlando, Florida,32809,4078516001
Mamas Cheesesteak,629 North Westmoreland Drive,Orlando, Florida,32805,4078436167
Mangoes Restaurant & Radisson Barcelo Hotel Or,8444 International Drive,Orlando, Florida,32819,4073450505
Manuels On the 28th,390 North Orange Avenue,Orlando, Florida,32801,4072466580
Margaritas Grill,583 South Chickasaw Trail,Orlando, Florida,32825,4073802600
Marios Pizza & Subs Restaurant,7213 Curry Ford Road,Orlando, Florida,32822,4072822000
Mark Two Dinner Theater,3376 Edgewater Drive,Orlando, Florida,32804,4078436275
Marriott Orlando Downtown,400 W Livingston St,Orlando, Florida,32801,4078436664
Marriott's Grande Vista,5925 Avenida Vis,Orlando, Florida,32821,4072387676
Maryland Fried Chicken,5003 Edgewater Drive,Orlando, Florida,32810,4072956048
Maryland Fried Chicken,3500 Curry Ford Road,Orlando, Florida,32806,4078967255
Maryland Fried Chicken of Union Park,9710 East Colonial Drive,Orlando, Florida,32817,4072730480
Masters Inn - Orlando/International Driv,8222 Jamaican Ct,Orlando, Florida,32819,4073451172
May Sum Chinese Restaurant,4542 South Semoran Boulevard,Orlando, Florida,32822,4072738740
Maya Grill,Disney's Coronado Sp,Orlando, Florida,32830,4079393463
Mazzarellas Foods Pizzeria Pizza,9067 International Drive,Orlando, Florida,32819,4079030403
Mcdonald's Restaurants - Downtown Disney,1674 East Buena Vista Drive,Orlando, Florida,32830,4078280224
Mcdonald's Restaurants - Lake Buena Vista,1596 West Buena Vista Drive,Orlando, Florida,32830,4079390875
Mcdonald's Restaurants - Lake Buena Vista,12549 State Road 535,Orlando, Florida,32836,4078271030
Mcdonald's Restaurants - Ocoee,5498 Central Florida Parkway,Orlando, Florida,32821,4072380995
Mcdonald's Restaurants - Winter Park,1028 Lee Road,Orlando, Florida,32810,4076471615
Medinas Grocery & Restaurant,2405 East Washington Street,Orlando, Florida,32803,4078942206
Meet ME at Pichys,805 Lee Road,Orlando, Florida,32810,4075234500
Memories of India-Indian Cuisine,7625 Turkey Lake Road,Orlando, Florida,32819,4073703277
Merry Mystery Dinner Adventure,7508 Universal Boulevard,Orlando, Florida,32819,4073631985
Metro Espresso Pizza Cafe,417 East Central Boulevard,Orlando, Florida,32801,4074225282
Metro West Cafe,3300 South Hiawassee Road,Orlando, Florida,32835,4075210960
MI Pequena Colombia,2051 Americana Boulevard,Orlando, Florida,32839,4078571849
Miami Subs Grill,5000 West Colonial Drive,Orlando, Florida,32808,4072958256
Miami Subs Grill,12399 State Road 535,Orlando, Florida,32836,4072392766
Michaels Restaurant & Pizza,12309 East Colonial Drive,Orlando, Florida,32826,4072733631
Michelangelo Italian Cuisine,4898 South Kirkman Road,Orlando, Florida,32811,4072976666
Middle East Market & Deli,8100 South Orange Blossom Trai,Orlando, Florida,32809,4078556555
Ming Court Innovative Oriental Cuisine,9188 International Drive,Orlando, Florida,32819,4073519988
Miss Saigon Restaurant,12245 University Boulevard,Orlando, Florida,32817,4073060840
Misuzu Japanese Restaurant,1905 North Orange Avenue,Orlando, Florida,32804,4078958396
MOMS Diner,2651 North Orange Blossom Trai,Orlando, Florida,32804,4078803337
Moodswing Cafe,815 North Mills Avenue,Orlando, Florida,32803,4078959777
Moonfish,7525 West Sand Lake Road,Orlando, Florida,32819,4073637262
Mountain Grill,11731 e colonial dr,Orlando, Florida,32817,4073828333
Mr Mofongo,5643 East Colonial Drive,Orlando, Florida,32807,4074820150
Mr Quick,5615 West Colonial Drive,Orlando, Florida,32808,4072930511
Mugsys 33rd St Bar & Grill,2500 33rd Street,Orlando, Florida,32839,4078496999
Mulvaneys Irish Pub,7032 International Drive,Orlando, Florida,32819,4073527031
Nagoya Sushi,6417 Raleigh Street,Orlando, Florida,32835,4072901288
National Sub Shop,6432 East Colonial Drive,Orlando, Florida,32807,4072779895
Natures Table,1000 Legion Place,Orlando, Florida,32801,4078351774
Natures Table,800 North Magnolia Avenue,Orlando, Florida,32803,4078434869
Natures Table,5955 T G Lee Boulevard,Orlando, Florida,32822,4074382002
Natures Table Cafe,1900 Summit Tower Boulevard,Orlando, Florida,32810,4076602006
Natures Table Cafe,6675 Westwood Boulevard,Orlando, Florida,32821,4073700500
Natures Table Cafe,8529 South Park Circle,Orlando, Florida,32819,4073451070
NBA City Restaurant,6068 Universal Boulevard,Orlando, Florida,32819,4073635919
Nellie Belles Cafe,7323 South Orange Avenue,Orlando, Florida,32809,4078551134
Nellys Sandwich House,5425 South Orange Blossom Trai,Orlando, Florida,32839,4078581524
New China Gourmet,3334 Curry Ford Road,Orlando, Florida,32806,4078944846
New China King,5709 Edgewater Drive,Orlando, Florida,32810,4072951788
New Millennium,1709 West Oak Ridge Road,Orlando, Florida,32809,4078882555
New York China Buffet,12173 South Apopka Vineland Ro,Orlando, Florida,32836,4072389198
New York Deli Subs,693 North Orange Avenue,Orlando, Florida,32801,4076494900
New York Pizza Club,2753 North Hiawassee Road,Orlando, Florida,32818,4072980083
Next Day Gourmet,2301 Premier Row,Orlando, Florida,32809,4078597300
Niccolis Subs in Orlando,6602 Old Winter Garden Road,Orlando, Florida,32835,4072937020
Nikkis Hot Dogs,429 West Church Street,Orlando, Florida,32801,4076497166
Nikkis Place Southern Cuisine,742 Carter Street,Orlando, Florida,32805,4074255301
No One Chinese Restaurant,12317 South Orange Blossom Tra,Orlando, Florida,32837,4078269998
Noodle House,2101 East Colonial Drive,Orlando, Florida,32803,4072284090
Normandie LA,2021 East Colonial Drive,Orlando, Florida,32803,4078969976
Numero Uno Restaurant,2499 South Orange Avenue,Orlando, Florida,32806,4078413840
NYPD,373 North Orange Avenue,Orlando, Florida,32801,4078726973
Oak Ridge Cafe,2340 West Oak Ridge Road,Orlando, Florida,32809,4072402341
Oakwood Gates Of Harbortown (Ip),2333 Lake Debra Dr,Orlando, Florida,32835,8005449537
Oboys Real Smoked Bar-B-Q,924 West Colonial Drive,Orlando, Florida,32804,4074256269
Ocean Grill,6432 International Drive,Orlando, Florida,32819,4073529993
October Rice Inc,827 Good Homes Road,Orlando, Florida,32818,4072990890
Ohana Feast,Disney's Polynesian,Orlando, Florida,32830,4078241334
Olde Dixie Fried Chicken Inc,5925 South Orange Avenue,Orlando, Florida,32809,4078550681
Oleys Homestyle Cooking,2720 South Rio Grande Avenue,Orlando, Florida,32805,4074227288
Olivias Cafe,Disney's Old Key Wes,Orlando, Florida,32830,4079393463
Olympia Restaurant,8505 East Colonial Drive,Orlando, Florida,32817,4072737836
Omega Deli Restaurant,315 East Robinson Street,Orlando, Florida,32801,4078416674
Omni Rosen Convention Hotel - Everglades Restauran,9840 International Drive,Orlando, Florida,32819,4079962385
Oneils of Boston,2849 South Orange Avenue,Orlando, Florida,32806,4079992554
Orange Avenue Antique Market,1829 North Orange Avenue,Orlando, Florida,32804,4078955590
Orange Tree Golf Club - Restaurant,7540 Woodgreen Drive,Orlando, Florida,32819,4073514041
Orchid Siam Restaurant,7575 Universal Boulevard,Orlando, Florida,32819,4073510821
Orient Cafe,4525 South Semoran Boulevard,Orlando, Florida,32822,4073805583
Original Buffalo Wings & Subs,4152 West Oak Ridge Road,Orlando, Florida,32809,4073544476
Orlando - Winter Park,5300 Adanson St,Orlando, Florida,32810,4076471444
Orlando Ale House,1667 Florida Mall Avenue,Orlando, Florida,32809,4072404080
Orlando Barbeque,5601 South Orange Avenue,Orlando, Florida,32809,4078519392
Orlando Central Knights Inn,221 E Colonial Dr,Orlando, Florida,32801,4074259065
Orlando Renaissance Hotel,5445 Forbes Place,Orlando, Florida,32812,4072401000
Orlando-Days Inn And Lodge Fl Mall/Airport,1851 W Landstreet Rd,Orlando, Florida,32809,4078597700
Orlando-Days Inn East,11639 E Colonial Dr,Orlando, Florida,32817,4072822777
Orlando-Days Inn International Drive,7200 International Dr,Orlando, Florida,32819,4073511200
Orlando-Days Inn W. Colonial Dr.,3956 W Colonial Dr,Orlando, Florida,32808,4072911452
OSC Cafe,400 West Robinson Street,Orlando, Florida,32801,4076499944
Oscars Restaurant,4008 South Orange Blossom Trai,Orlando, Florida,32839,4079994989
Ostromboli Italian Restaurant,1803 East Winter Park Road,Orlando, Florida,32803,4076473872
Outback Restaurant,Wyndham Palace Resorthe Walt,Orlando, Florida,32830,4078273430
Outback Steakhouse - Florida Mall,1301 Florida Mall Avenue,Orlando, Florida,32809,4072406857
Oyaji Japanese Cuisine,6935 Municipal Drive,Orlando, Florida,32819,4073540860
Padrinos Pizza,6420 Winegard Road,Orlando, Florida,32809,4078572331
Paesanos Liquors & Ristorante,12525 State Road 535,Orlando, Florida,32836,4078271101
Paisanos Pizza Restaurant,1272 West Holden Avenue,Orlando, Florida,32839,4078519360
Palacio Chino,13898 Landstar Boulevard,Orlando, Florida,32824,4078510078
Panera Bread Restaurant,296 East Michigan Street,Orlando, Florida,32806,4074819880
Panera Bread Restaurant,11472 University Boulevard,Orlando, Florida,32817,4072734411
Papa BS,2736 South Chickasaw Trail,Orlando, Florida,32829,4072777789
Papa BS Grill and Eatery,4544 Curry Ford Road,Orlando, Florida,32812,4073067878
Papa Joes Pizza of Waterford Lakes,851 North Alafaya Trail,Orlando, Florida,32828,4072774744
Papa John's Pizza - Dr Phillips Area,5922 Turkey Lake Road,Orlando, Florida,32819,4073637272
Papa John's Pizza - Pine Hills,6310 West Colonial Drive,Orlando, Florida,32818,4072997272
Papa John's Pizza - South Winterpark Downtown Orla,1501 North Mills Avenue,Orlando, Florida,32803,4078957272
PARC Public Inc,6300 Parc Corniche Drive,Orlando, Florida,34741,4072382641
Parkys Deli,71 East Church Street,Orlando, Florida,32801,4078419878
Pasquales,13212 East Colonial Drive,Orlando, Florida,32826,4072499991
Passage To India,5532 International Drive,Orlando, Florida,32819,4073513456
Patios Cafe,6096 East Colonial Drive,Orlando, Florida,32807,4072814700
Peabody Hotel,9801 International Drive,Orlando, Florida,32819,4073524000
Peacock Garden Restaurant,6121 Westwood Boulevard,Orlando, Florida,32821,4073630103
Pearls Chinese Restaurant,5438 Central Florida Parkway,Orlando, Florida,32821,4072381515
Pebbles Restaurant,17 West Church Street,Orlando, Florida,32801,4078390892
Pebbles Restaurant,12551 State Road 535,Orlando, Florida,32836,4078271111
Pembroke Deli,1800 Pembrook Drive,Orlando, Florida,32810,4079165777
Peoples Choice,913 South Goldwyn Avenue,Orlando, Florida,32805,4075223963
Pepper Market,1001 West Buena Vista Drive,Orlando, Florida,32830,4079393593
Perkins Family Restaurant 1244,11662 University Boulevard,Orlando, Florida,32817,4073843383
Perkins Family Restaurant and Bakery,12559 State Road 535,Orlando, Florida,32836,4078271060
Perkins Family Restaurants,6813 West Sand Lake Road,Orlando, Florida,32819,4073510373
Perkins Family Restaurants,7451 Spacecoast Parkway,Orlando, Florida,32801,4078963725
Perkins Family Restaurants,5705 La Costa Drive,Orlando, Florida,32807,4072755620
Perkins Family Restaurants,Highway 192 East,Orlando, Florida,32801,4074231858
Perkins Family Restaurants,2001 Consulate Drive,Orlando, Florida,32837,4078590018
Pet Deli,3883 West Colonial Drive,Orlando, Florida,32808,4075220220
Philly Connection Restaurant,13025 South Orange Blossom Tra,Orlando, Florida,32837,4078548585
Phuongdong Restaurant,914 North Mills Avenue,Orlando, Florida,32803,4078986553
Piccadilly Cafeteria 20 Fashion Square Mall,3371 East Colonial Drive,Orlando, Florida,32803,4078960856
Piccadillys Cafeteria,1840 East Colonial Drive,Orlando, Florida,32803,4078962091
Pickles,201 South Rosalind Avenue,Orlando, Florida,32801,4074269064
Pierres Steakhouse,801 North John Young Parkway,Orlando, Florida,32804,4072933333
Pine Garden Restaurant,429 North Alafaya Trail,Orlando, Florida,32828,4072828889
Pine St Bar & Grill,68 East Pine Street,Orlando, Florida,32801,4078721947
PIO PIO Restaurant,11236 South Orange Blossom Tra,Orlando, Florida,32837,4074385677
Pirates Dinner Adventure,6400 Carrier Drive,Orlando, Florida,32819,4072480590
PISA Italian Pizza & Restaurant Inc,7058 West Colonial Drive,Orlando, Florida,32818,4075782759
Pizza Mania,2911 39th Street,Orlando, Florida,32839,4078393444
Pizza Port,4530 Hoffner Avenue,Orlando, Florida,32812,4078590130
Planet Pizza,14 West Washington Street,Orlando, Florida,32801,4076508859
Planet Smoothie,37 N Orange Ave,Orlando, Florida,32801,4074470367
Planet Smoothie,3011 Edgewater Drive,Orlando, Florida,32804,4073160052
Planet Smoothy,2561 South Kirkman Road,Orlando, Florida,32811,4072969409
Planet Smoothy,2451 South Hiawassee Road,Orlando, Florida,32835,4072960500
Planet Smoothy,898 East Washington Street,Orlando, Florida,32801,4079998993
Players Sports Pub,4432 Curry Ford Road,Orlando, Florida,32812,4072737363
Po' Boys Creole Cafe,50 E Central Blvd,Orlando, Florida,32801,4078395852
Pollo D Oro,2525 West Colonial Drive,Orlando, Florida,32804,4072992210
Pollo Rico Rotisserie,4006 South Semoran Boulevard,Orlando, Florida,32822,4073815519
Pollos PIO PIO,5752 International Drive,Orlando, Florida,32819,4072486424
Portobello Yacht Club Restaurant,Downtown Disney Plea,Orlando, Florida,32830,4079348888
Power Subs,9251 South Orange Blossom Trai,Orlando, Florida,32837,4072401149
Primo Hoagies,223 North Magnolia Avenue,Orlando, Florida,32801,4074230123
Princeton Diner,3310 Edgewater Drive,Orlando, Florida,32804,4074255046
PRS Mexican Restaurant,4768 South Kirkman Road,Orlando, Florida,32811,4072938226
PU YI Chinese Restaurant,10169 University Boulevard,Orlando, Florida,32817,4076788188
Punjab Indian Restaurant,7451 International Drive,Orlando, Florida,32819,4073527887
Queen Bees Soul Food Restaurant,3214 Orange Center Boulevard,Orlando, Florida,32805,4072991001
R N O Seafood Diner,946 South Orange Avenue,Orlando, Florida,32806,4078410403
Race Rock,8986 International Drive,Orlando, Florida,32819,4072489876
Rachels South,8701 South Orange Avenue,Orlando, Florida,32824,4078589800
Rainforest Cafe,505 North Rainforest Road,Orlando, Florida,32830,4079389100
Rainforest Cafe A Wild Place To Shop & Eat,Downtown Disney Mark,Orlando, Florida,32830,4078278500
Rajs Roadside Deli,629 Delhi Street,Orlando, Florida,32808,4074453064
Rangetsu of Tokyo,8400 International Drive,Orlando, Florida,32819,4073450044
Rangoli Sweet of America,6100 Old Winter Garden Road,Orlando, Florida,32835,4072911616
Restaurant Maintenance CO,1719 South Division Avenue,Orlando, Florida,32805,4074257973
Restaurant Partners,112 East Concord Street,Orlando, Florida,32801,4078395070
Restaurant Popular,1919 South Orange Blossom Trai,Orlando, Florida,32805,4078433327
Rincon Criollo,331 North Orange Avenue,Orlando, Florida,32801,4078721128
Ristorante Italia,730 Sand Lake Road,Orlando, Florida,32809,4078161199
Riviera Italiana FD Enterprises,5334 Central Florida Parkway,Orlando, Florida,32821,4072929228
Roadhouse Grill,2881 South Orange Avenue,Orlando, Florida,32806,4074812991
Roadhouse Grill Inc,3789 South Kirkman Road,Orlando, Florida,32811,4074451685
Rock,741 West Church Street,Orlando, Florida,32805,4078435202
Rogers Diner,2920 Corrine Drive,Orlando, Florida,32803,4078948871
Roma Foods,7520 Chancellor Drive,Orlando, Florida,32809,8003667662
Ronnies Steakhouse,7500 International Drive,Orlando, Florida,32819,4073133000
Rossis Pizzeria and Lounge,5919 South Orange Blossom Trai,Orlando, Florida,32809,4078555755
Royal Thai Restaurant,1202 North Semoran Boulevard,Orlando, Florida,32807,4072750776
Roys,7760 West Sand Lake Road,Orlando, Florida,32819,4073524844
Ruby Tuesdays,13145 South Orange Blossom Tra,Orlando, Florida,32837,4078548307
Rubys Jamaican Cuisine,720 North Hastings Street,Orlando, Florida,32808,4072906677
Ruth's Chris Steak House,7501 West Sand Lake Road,Orlando, Florida,32819,4072263900
Ryans Steak House,1754 South Econlockhatchee Tra,Orlando, Florida,32825,4073810595
Saigon Garden Restaurant,710 South Goldenrod Road,Orlando, Florida,32822,4076581967
Saigon Subs Inc,1242 East Colonial Drive,Orlando, Florida,32803,4078971278
Saigon Wok,863 North Alafaya Trail,Orlando, Florida,32828,4072071000
Sal's Pizza,5667 Vineland Road,Orlando, Florida,32819,4073550299
Sam Sneads Tavern,2461 South Hiawassee Road,Orlando, Florida,32835,4072959999
Sam Sneads Tavern,301 East Pine Street,Orlando, Florida,32801,4079990109
Samba Room,7468 West Sand Lake Road,Orlando, Florida,32819,4072260550
Sams Snacks,2155 West Colonial Drive,Orlando, Florida,32804,4078491616
San Angel Inn,7101 Presidents Drive,Orlando, Florida,32809,4078540039
San Joses Original Mexican Restaurant,7427 West Colonial Drive,Orlando, Florida,32818,4075237577
Sand Trapp Inn,14205 East Colonial Drive,Orlando, Florida,32826,4072752667
Sandwich King,207 North Primrose Drive,Orlando, Florida,32803,4078961981
Santa Fe Buffett,7056 South Kirkman Road,Orlando, Florida,32819,4073512201
Sapphire Supper Club,54 North Orange Avenue,Orlando, Florida,32801,4072461419
Save N PAC - Store Number 1903,10681 East Colonial Drive,Orlando, Florida,32817,4073811750
Sergios Restaurant,355 North Orange Avenue,Orlando, Florida,32801,4074286162
Shakera West Indian Restaurant,2615 North Pine Hills Road,Orlando, Florida,32808,4072902462
Shakers American Cafe,1308 Edgewater Drive,Orlando, Florida,32804,4074223534
Shalimar Tandoor & Grill,7342 International Drive,Orlando, Florida,32819,4072269797
Shamiana Restaurant,7040 International Drive,Orlando, Florida,32819,4073541160
Shanghai Restaurant,5161 South John Young Parkway,Orlando, Florida,32839,4078511178
Shannons Casual Cafe,4401 South Orange Avenue,Orlando, Florida,32806,4078559995
Shaprika Enterprises Inc,5594 North Orange Blossom Trai,Orlando, Florida,32810,4072962300
Sharons Place,4905 South Orange Avenue,Orlando, Florida,32806,4078569565
Shell's Seafood Restaurant,852 Lee Road,Orlando, Florida,32810,4076283968
Shin Jung Korean Restaurant,1638 East Colonial Drive,Orlando, Florida,32803,4078957345
Shogun Restaurant,6327 International Drive,Orlando, Florida,32819,4073521607
Shoney's Restaurants - Kissimmee,12204 South Apopka Vineland Ro,Orlando, Florida,32836,4072395416
Sicilian Pizzeria & Restaurant,820 Lee Road,Orlando, Florida,32810,4075994487
Silver Star Buffet,3075 Silver Star Road,Orlando, Florida,32808,4072923737
Sizzler Restaurants,6308 International Drive,Orlando, Florida,32819,4072489711
Sizzler Restaurants,9142 International Drive,Orlando, Florida,32819,4073515369
Sizzler Restaurants,12195 South Apopka Vineland Ro,Orlando, Florida,32836,4072381551
Sizzler Restaurants Regional Office,7800 Southland Boulevard,Orlando, Florida,32809,4078560122
Sizzling Wok Inc,Po Box 691088,Orlando, Florida,32869,4074388389
Smokey Bones BBQ & Sports Bar,PO Box 593330,Orlando, Florida,32859,4072492009
Smokey Bones BBQ & Sports Bar,3400 E Colonial Dr,Orlando, Florida,32803,4078941511
Smokey Bones BBQ & Sports Bar,7225 W Colonial Dr,Orlando, Florida,32818,4072933330
Smokey Bones BBQ & Sports Bar,7225 West Colonial Drive,Orlando, Florida,32818,4072933330
Sobiks of East Colonial,6793 East Colonial Drive,Orlando, Florida,32807,4072824774
Sobiks Subs,1010 Lee Road,Orlando, Florida,32810,4076291835
Sobiks Subs,2345 East Michigan Street,Orlando, Florida,32806,4078989115
Sobiks Subs Downtown,217 North Magnolia Avenue,Orlando, Florida,32801,4076508744
Sobiks Subs of Edgewater Restaurant,6194 Edgewater Drive,Orlando, Florida,32810,4072986418
Sobiks Subs of Oak Ridge Road,1710 West Oak Ridge Road,Orlando, Florida,32809,4078567151
Sobiks Subs of Sand Lake Road,1925 Sand Lake Road,Orlando, Florida,32809,4078570146
Sobiks Subs of So Obt,9521 South Orange Blossom Trai,Orlando, Florida,32837,4078560940
"Sonic Drive In's Corp. Offices -- Orlando, FL.",5306 North Orange Blossom Trai,Orlando, Florida,32810,4072989200
Sonny's Real Pit Bar-B-Q - Catering,Greater,Orlando, Florida,32801,4076608888
Sopranos Pizza II,2425 East Colonial Drive,Orlando, Florida,32803,4078985808
Sopranos Ristorante & Pizzeria,3990 Curry Ford Road,Orlando, Florida,32806,4078959334
Spicy Hot Restaurant,2141 West Colonial Drive,Orlando, Florida,32804,4078432251
Stadium Club Cafe & Pub,825 Courtland Street,Orlando, Florida,32804,4075999334
Stallones Italian Eatery,4626 South Kirkman Road,Orlando, Florida,32811,4072935777
Station 441,2 South Orange Blossom Trail,Orlando, Florida,32805,4074253772
Steak & Ale Restaurant,7320 West Colonial Drive,Orlando, Florida,32818,4074456409
Steak and Ale Restaurants,828 North Semoran Boulevard,Orlando, Florida,32807,4072733981
Steak and Ale Restaurants,6115 Westwood Boulevard,Orlando, Florida,32821,4073520526
Steak'n Shake,13133 South Orange Blossom Tra,Orlando, Florida,32837,4072408740
Steak-Out,5490 South Orange Blossom Trai,Orlando, Florida,32839,4078889565
Steak-Out,1119 East Colonial Drive,Orlando, Florida,32803,4078956400
Stonewood Tavern and Grill,5078 Dr Phillips Boulevard,Orlando, Florida,32819,4072927886
Stoneybrook Golf Club,2900 Northampton Avenue,Orlando, Florida,32828,4077374100
Straubs Seafood,5101 East Colonial Drive,Orlando, Florida,32803,4072739330
Subs Plus,5368 Central Florida Parkway,Orlando, Florida,32821,4072391764
Subs To Go Inc,3444 Old Winter Garden Road,Orlando, Florida,32805,4072959846
Subway at Lake Olympia,1569 Silver Star Road,Orlando, Florida,32804,4072970560
Subway Sandwich Shops,2394 West Oak Ridge Road,Orlando, Florida,32809,4078552030
Subway Sandwich Shops,11314 South Orange Blossom Tra,Orlando, Florida,32837,4078592017
Subway Sandwich Shops,1742 South Orange Avenue,Orlando, Florida,32806,4078410181
Subway Sandwich Shops,8096 South Orange Blossom Trai,Orlando, Florida,32809,4078570292
Subway Sandwich Shops,4678 South Orange Blossom Trai,Orlando, Florida,32839,4078504300
Subway Sandwich Shops,2008 East Colonial Drive,Orlando, Florida,32803,4078982181
Sunburst Sub Shop,912 West Central Boulevard,Orlando, Florida,32805,4074255866
Sunflower Chinese Kitchen,5152 South Conway Road,Orlando, Florida,32812,4078580368
Sunrise Restaurant,1125 South Semoran Boulevard,Orlando, Florida,32807,4077360771
Sunset Grill,5800 Universal Boulevard,Orlando, Florida,32819,4075033463
Sushi Hatsu Japanese Restaurant,24 East Washington Street,Orlando, Florida,32801,4074221551
Sushi House,1311 Florida Mall Avenue,Orlando, Florida,32809,4078129767
Sweet Tomatoes,6877 South Kirkman Road,Orlando, Florida,32819,4073631616
Sweet Tomatoes,4678 East Colonial Drive,Orlando, Florida,32803,4078968770
Szechwan House Chinese Rest,10488 Cresto Delsol Circle,Orlando, Florida,32817,4072814443
Ta Tung Fast Food Restaurant,10025 East Colonial Drive,Orlando, Florida,32817,4072491302
Tai Won Restaurant,2125 Americana Boulevard,Orlando, Florida,32839,4078265122
TAJ Indian Restaurant,6524 Carrier Drive,Orlando, Florida,32819,4073525510
Takeout Express,7111 Grand National Drive,Orlando, Florida,32819,4073521170
Tanquerays Bar & Grille,100 South Orange Avenue,Orlando, Florida,32801,4076498540
Taste of Hong Kong,6540 Carrier Drive,Orlando, Florida,32819,4072482863
Taste of Japan,7637 Turkey Lake Road,Orlando, Florida,32819,4073630360
Tasty Thai Cuisine,3806 Curry Ford Road,Orlando, Florida,32806,4078956266
Tasty Wok,1246 East Colonial Drive,Orlando, Florida,32803,4078968988
TAZA Restaurant Corporate Office,8016 Golden Sky Lane,Orlando, Florida,32809,4078579111
Tega Com,4553 South kirkman Suite 3,Orlando, Florida,32811,4072965548
Texas Cattle Company Catering,1260 Central Florida Parkway,Orlando, Florida,32837,4078518400
Thai Cuisine Restaurant,5405 Edgewater Drive,Orlando, Florida,32810,4072929474
Thai Golden Palace,649 North Primrose Drive,Orlando, Florida,32803,4078965849
Thai House,2117 East Colonial Drive,Orlando, Florida,32803,4078980820
The Boheme Restaurant,325 South Orange Ave.,Orlando, Florida,32801,4073139000
The Game Of Love,5139 Letha Street,Orlando, Florida,32811,4076575435
The Globe,25 wall street plaza,Orlando, Florida,32803,4074221669
The Little Sub Shop,7371 Lake Underhill Road,Orlando, Florida,32822,4072751037
The Racing Cafe,2603 East South Street,Orlando, Florida,32803,4072289985
The Sapphire,54 N Orange Ave,Orlando, Florida,32801,4072461599
Theos Kitchen,435 East Michigan Street,Orlando, Florida,32806,4078490810
Thirsty Whale Sports Bar & Grill,2503 South Kirkman Road,Orlando, Florida,32811,4075234200
Thornton Park Diner,4 North Summerlin Avenue,Orlando, Florida,32801,4078491211
TIEN Garden Chinese Restaurant,11786 East Colonial Drive,Orlando, Florida,32817,4072811864
Timpano Italian Chophouse,7488 West Sand Lake Road,Orlando, Florida,32819,4072480429
Tinos Cuban Food Inc.,7624 Sun Vista Way,Orlando, Florida,32822,4073846668
Tirami Su Cafe,1600 North Orange Avenue,Orlando, Florida,32804,4072280303
Tom & Monys Pit Beef & Pub,4757 South Orange Avenue,Orlando, Florida,32806,4078554006
Tombstone-Kraft Pizza Company,2815 Directors Row,Orlando, Florida,32809,4078509990
Tomver Goodies,7488 Hoffner Avenue,Orlando, Florida,32822,4076588550
Tongs Chinese Bar-B-Que,1224 East Colonial Drive,Orlando, Florida,32803,4078988855
Tony Roma's Famous for Ribs,7015 South Semoran Boulevard,Orlando, Florida,32822,4078577244
Tony Roma's Famous for Ribs,8550 International Drive,Orlando, Florida,32819,4072480094
Tony Roma's Famous for Ribs,11674 University Boulevard,Orlando, Florida,32817,4072073010
Tony Roma's Famous for Ribs,12167 South Apopka Vineland Ro,Orlando, Florida,32836,4072398040
Tonys Wings & Fish,8613 Forest City Road,Orlando, Florida,32810,4072938917
Toojays Gourmet Deli,2624 East Colonial Drive,Orlando, Florida,32803,4078941718
Toojays Gourmet Deli,7600 Dr Phillips Boulevard,Orlando, Florida,32819,4073550340
Toojays Gourmet Deli,715 North Alafaya Trail,Orlando, Florida,32828,4072499475
Top China,5270 West Colonial Drive,Orlando, Florida,32808,4072994256
Toppings Pizza,1708 North Goldenrod Road,Orlando, Florida,32807,4073843311
Trang Cafe,1202 East Colonial Drive,Orlando, Florida,32803,4078952409
Travel Plaza by Marriott,Sunshine State Parkway,Orlando, Florida,32801,4072983060
Treats Bakery Cafe,255 South Orange Avenue,Orlando, Florida,32801,4078723600
TREY YUEN Restaurant,6800 Visitors Circle,Orlando, Florida,32819,4073526822
Triple Eight Chinese Restaurant,2188 South Chickasaw Trail,Orlando, Florida,32825,4073822129
Tropical Grill,1811 South Semoran Boulevard,Orlando, Florida,32822,4072732600
Tropical Grill,2464 South Orange Avenue,Orlando, Florida,32806,4078437410
Tropical Paradise,5205 West Colonial Drive,Orlando, Florida,32808,4075787766
Tropical Restauant,2680 South Rio Grande Avenue,Orlando, Florida,32805,4075401336
Tropical Smoothie Cafe,7565 West Sand Lake Road,Orlando, Florida,32819,4072480707
Tropical Smoothie Cafe,10501 Blanchard Trail,Orlando, Florida,32801,4076581610
Tropigrill,8408 South Orange Blossom Trai,Orlando, Florida,32809,4078574849
Tropix Grill,8100 Lake Avenue,Orlando, Florida,32836,4072391144
Tuttamore Cafe,7555 West Sand Lake Road,Orlando, Florida,32819,4073522033
Two Fat Chefs,1375 South Semoran Boulevard,Orlando, Florida,32807,4072731333
U S Leader Restaurants,9439 Forest City Cove,Orlando, Florida,32801,4074457235
United Buffet,4000 East Colonial Drive,Orlando, Florida,32803,4072282899
Universal City Resort,5905 International Drive,Orlando, Florida,32819,4073512100
University Grille,12273 University Boulevard,Orlando, Florida,32817,4073823570
Van LOI,3725 South Orange Blossom Trai,Orlando, Florida,32839,4074810086
Vegas Cafe,1835 East Colonial Drive,Orlando, Florida,32803,4078985196
Ventura Country Club Community - Restaurant,3333 Woodgate Boulevard,Orlando, Florida,32822,4073801882
Viet Garden,1237 East Colonial Drive,Orlando, Florida,32803,4078964154
Vietnam Center,3371 Coe Avenue,Orlando, Florida,32806,7277680522
Vine Bistro,13001 Founders Square Drive,Orlando, Florida,32828,4073849939
Vinhs Restaurant,1231 East Colonial Drive,Orlando, Florida,32803,4078945007
Vitos Chop House,8633 International Drive,Orlando, Florida,32819,4073542467
Waffle House,5350 South Kirkman Road,Orlando, Florida,32819,4073510730
Waffle House,13073 South Orange Blossom Tra,Orlando, Florida,32837,4072404936
Waffle House,11749 East Colonial Drive,Orlando, Florida,32817,4073805447
Waffle House,8903 South Orange Blossom Trai,Orlando, Florida,32809,4078572953
Waffle House,6990 West Colonial Drive,Orlando, Florida,32818,4072938048
Waffle House,1736 McCoy Road,Orlando, Florida,32809,4078570455
Waffle House Restaurants,12805 State Road 535,Orlando, Florida,32836,4072396444
Washington Shores Fish Market,3593 Columbia Street,Orlando, Florida,32805,4072938614
Watercress Cafe,Wyndham Palace Resor,Orlando, Florida,32830,4078273440
Weenie Wagon,910 Lee Road,Orlando, Florida,32810,4075993911
Wendy's Old Fashioned Hamburgers - Longwood,11251 University Boulevard,Orlando, Florida,32817,4076718511
Wendy's Old Fashioned Hamburgers - Longwood,5824 Central Florida Parkway,Orlando, Florida,32821,4072394134
Western Steer Family Steakhouse,6315 International Drive,Orlando, Florida,32819,4073630677
Westernsizzlin,8700 South Orange Blossom Trai,Orlando, Florida,32809,4074382293
Westin Grand Bohemian Hotel,325 South Orange Avenue,Orlando, Florida,32801,4073139000
Wild Jacks Steaks & BBQ,7364 International Drive,Orlando, Florida,32819,4073524407
Wing Shack,4644 East Michigan Street,Orlando, Florida,32812,4073814798
Wing Shack,10028 University Blvd,Orlando, Florida,32817,4076771004
Wingers Wings & Grill,2100 Whisper Lakes Boulevard,Orlando, Florida,32837,4078545464
Wings Etc,1319 Florida Mall Avenue,Orlando, Florida,32809,4072404639
Wolfgang Puck Cafe - Downtown Disney,1482 East Buena Vista Drive,Orlando, Florida,32830,4079389653
Woodees Country Kitchen,1000 South Orange Blossom Trai,Orlando, Florida,32805,4074221045
World Cafe,5255 West Oak Ridge Road,Orlando, Florida,32819,4072480408
World Cafe International,6582 International Drive,Orlando, Florida,32819,4073702288
Wyndham Palace Resort & Spa,1900 North Buena Vista Drive,Orlando, Florida,32830,4078272727
Xtreme Juice,5816 Conroy Road,Orlando, Florida,32835,4072982433
Yen Yan Chinese Food,2724 South Chickasaw Trail,Orlando, Florida,32829,4076582639
Yourae Inc,4439 Edgewater Drive,Orlando, Florida,32804,4072900862
Zello Urban Cafe,2 South Orange Avenue,Orlando, Florida,32801,4075401150
Zuzus of Orlando,7536 Dr Phillips Boulevard,Orlando, Florida,32819,4079031222
